ONEWEB-0309             
1 49095U 21075W   26179.55539325  .00000056  00000+0  11158-3 0  9993
2 49095  87.9130   3.6009 0002218 100.1292 260.0090 13.17649282235070
ONEWEB-0310             
1 49096U 21075X   26179.51871431  .00000090  00000+0  21459-3 0  9990
2 49096  87.8942 348.4257 0001842  93.5744 266.5595 13.12443371236679
ONEWEB-0311             
1 49097U 21075Y   26179.56213347  .00000083  00000+0  18013-3 0  9996
2 49097  87.9132   3.5994 0002082  78.7644 281.3722 13.17650824235124
ONEWEB-0312             
1 49098U 21075Z   26179.57732089  .00000079  00000+0  16969-3 0  9990
2 49098  87.9131   3.6069 0002173  88.3231 271.8150 13.17648542235109
ONEWEB-0313             
1 49099U 21075AA  26179.58225392  .00000069  00000+0  14559-3 0  9998
2 49099  87.9129   3.6113 0001947  86.7426 273.3929 13.17649826235098
ONEWEB-0314             
1 49100U 21075AB  26179.54864893  .00000044  00000+0  80578-4 0  9990
2 49100  87.9141   3.5920 0002237  86.9631 273.1756 13.17649896235063
ONEWEB-0315             
1 49101U 21075AC  26179.49159640 -.00000330  00000+0 -95152-3 0  9995
2 49101  87.8953 348.3959 0001901  80.9030 279.2313 13.12441506236655
ONEWEB-0316             
1 49102U 21075AD  26179.46439568 -.00000708  00000+0 -18289-2 0  9997
2 49102  87.9178 333.2120 0001811  95.7704 264.3635 13.18677840238697
ONEWEB-0317             
1 49103U 21075AE  26179.49498467 -.00000393  00000+0 -11269-2 0  9995
2 49103  87.8955 348.4195 0001985 114.6559 245.4777 13.12442108236675
ONEWEB-0318             
1 49104U 21075AF  26179.46103892  .00001303  00000+0  32722-2 0  9995
2 49104  87.9177 333.2148 0001893  89.8825 270.2524 13.18678321238650
ONEWEB-0319             
1 49105U 21075AG  26179.56382606  .00000082  00000+0  17768-3 0  9996
2 49105  87.9131   3.6043 0001950  73.9555 286.1791 13.17649878235104
ONEWEB-0323             
1 49106U 21075AH  26179.47635747  .00000138  00000+0  34944-3 0  9991
2 49106  87.8954 348.4043 0002077  78.2522 281.8839 13.12440645236034
ONEWEB-0329             
1 49107U 21075AJ  26179.49633067  .00000050  00000+0  95787-4 0  9993
2 49107  87.9131   3.6185 0001998  88.2584 271.8776 13.17649468235071
ONEWEB-0330             
1 49108U 21075AK  26179.58509828  .00000087  00000+0  18536-3 0  9997
2 49108  87.9134   3.6163 0002107  91.9590 268.1784 13.19184275235128
ONEWEB-0292             
1 49186U 21083A   26179.36365894  .00000222  00000+0  57425-3 0  9992
2 49186  87.8962 318.0126 0001861  93.1927 266.9415 13.13469676232396
ONEWEB-0303             
1 49187U 21083B   26179.45766345  .00000049  00000+0  92119-4 0  9996
2 49187  87.9176 333.2138 0001891  89.5472 270.5877 13.18687634231465
ONEWEB-0306             
1 49188U 21083C   26179.44753979  .00000062  00000+0  12343-3 0  9990
2 49188  87.9180 333.2041 0001880 101.7824 258.3520 13.18687668231501
ONEWEB-0307             
1 49189U 21083D   26179.43391480  .00000122  00000+0  29945-3 0  9998
2 49189  87.8963 317.9961 0001929  94.6277 265.5073 13.13471977232408
ONEWEB-0320             
1 49190U 21083E   26179.46778028  .00000081  00000+0  17209-3 0  9994
2 49190  87.9169 333.2172 0001839  96.4348 263.6993 13.18686467231465
ONEWEB-0321             
1 49191U 21083F   26179.48880011  .00000028  00000+0  37758-4 0  9996
2 49191  87.9193 272.1827 0002029 108.1663 251.9691 13.20773192238326
ONEWEB-0322             
1 49192U 21083G   26179.65822088  .00000015  00000+0  50281-5 0  9999
2 49192  87.8965 317.9517 0001620 110.8270 249.3033 13.13471695232428
ONEWEB-0324             
1 49193U 21083H   26179.44080976  .00000039  00000+0  66972-4 0  9998
2 49193  87.9181 333.2110 0002035  96.9366 263.1998 13.18685913231485
ONEWEB-0325             
1 49194U 21083J   26179.44418088  .00000004  00000+0 -23311-4 0  9991
2 49194  87.9170 333.2174 0001772  94.1624 265.9711 13.18686523231490
ONEWEB-0326             
1 49195U 21083K   26179.45950202  .00000058  00000+0  11472-3 0  9994
2 49195  87.9179 333.2133 0001848  86.3556 273.7788 13.18685722231486
ONEWEB-0327             
1 49196U 21083L   26179.45922182  .00000058  00000+0  11466-3 0  9994
2 49196  87.9171 333.2168 0001694  82.9134 277.2191 13.18685496231508
ONEWEB-0328             
1 49197U 21083M   26179.64805513 -.00000247  00000+0 -71139-3 0  9999
2 49197  87.8972 317.9276 0002028  98.8862 261.2497 13.13470849232403
ONEWEB-0331             
1 49198U 21083N   26179.45259760  .00000063  00000+0  12797-3 0  9995
2 49198  87.9180 333.2085 0001952  85.0655 275.0700 13.18687510231496
ONEWEB-0333             
1 49199U 21083P   26179.64297462 -.00000276  00000+0 -79069-3 0  9991
2 49199  87.8963 317.9539 0001807  97.5538 262.5797 13.13471132232411
ONEWEB-0334             
1 49200U 21083Q   26179.50310346  .00000001  00000+0 -29197-4 0  9999
2 49200  87.9194 272.1900 0001793 124.0952 236.0351 13.20774046238286
ONEWEB-0335             
1 49201U 21083R   26179.40935882 -.00000252  00000+0 -72366-3 0  9991
2 49201  87.8964 317.9975 0001921  93.0332 267.1017 13.13471466232393
