OBJECT_NAME,OBJECT_ID,EPOCH,MEAN_MOTION,ECCENTRICITY,INCLINATION,RA_OF_ASC_NODE,ARG_OF_PERICENTER,MEAN_ANOMALY,EPHEMERIS_TYPE,CLASSIFICATION_TYPE,NORAD_CAT_ID,ELEMENT_SET_NO,REV_AT_EPOCH,BSTAR,MEAN_MOTION_DOT,MEAN_MOTION_DDOT
ONEWEB-0309,2021-075W,2026-06-28T13:19:45.976800,13.17649282,.00022188,87.9130,3.6009,100.1292,260.0090,0,U,49095,999,23507,.11158207E-3,.56E-6,0
ONEWEB-0310,2021-075X,2026-06-28T12:26:56.916384,13.12443371,.00018425,87.8942,348.4257,93.5744,266.5595,0,U,49096,999,23667,.21459482E-3,.9E-6,0
ONEWEB-0311,2021-075Y,2026-06-28T13:29:28.331808,13.17650824,.00020829,87.9132,3.5994,78.7644,281.3722,0,U,49097,999,23512,.18013405E-3,.83E-6,0
ONEWEB-0312,2021-075Z,2026-06-28T13:51:20.524896,13.17648542,.00021737,87.9131,3.6069,88.3231,271.8150,0,U,49098,999,23510,.16969049E-3,.79E-6,0
ONEWEB-0313,2021-075AA,2026-06-28T13:58:26.738688,13.17649826,.00019477,87.9129,3.6113,86.7426,273.3929,0,U,49099,999,23509,.14558614E-3,.69E-6,0
ONEWEB-0314,2021-075AB,2026-06-28T13:10:03.267552,13.17649896,.00022376,87.9141,3.5920,86.9631,273.1756,0,U,49100,999,23506,.80578137E-4,.44E-6,0
ONEWEB-0315,2021-075AC,2026-06-28T11:47:53.928960,13.12441506,.00019015,87.8953,348.3959,80.9030,279.2313,0,U,49101,999,23665,-.95151539E-3,-.33E-5,0
ONEWEB-0316,2021-075AD,2026-06-28T11:08:43.786752,13.18677840,.00018118,87.9178,333.2120,95.7704,264.3635,0,U,49102,999,23869,-.18288863E-2,-.708E-5,0
ONEWEB-0317,2021-075AE,2026-06-28T11:52:46.675488,13.12442108,.00019852,87.8955,348.4195,114.6559,245.4777,0,U,49103,999,23667,-.1126938E-2,-.393E-5,0
ONEWEB-0318,2021-075AF,2026-06-28T11:03:53.762688,13.18678321,.00018932,87.9177,333.2148,89.8825,270.2524,0,U,49104,999,23865,.32721905E-2,.1303E-4,0
ONEWEB-0319,2021-075AG,2026-06-28T13:31:54.571584,13.17649878,.000195,87.9131,3.6043,73.9555,286.1791,0,U,49105,999,23510,.17768227E-3,.82E-6,0
ONEWEB-0323,2021-075AH,2026-06-28T11:25:57.285408,13.12440645,.0002077,87.8954,348.4043,78.2522,281.8839,0,U,49106,999,23603,.34944049E-3,.138E-5,0
ONEWEB-0329,2021-075AJ,2026-06-28T11:54:42.969888,13.17649468,.00019983,87.9131,3.6185,88.2584,271.8776,0,U,49107,999,23507,.95787169E-4,.5E-6,0
ONEWEB-0330,2021-075AK,2026-06-28T14:02:32.491392,13.19184275,.00021074,87.9134,3.6163,91.9590,268.1784,0,U,49108,999,23512,.18535648E-3,.87E-6,0
ONEWEB-0292,2021-083A,2026-06-28T08:43:40.132416,13.13469676,.00018615,87.8962,318.0126,93.1927,266.9415,0,U,49186,999,23239,.57425233E-3,.222E-5,0
ONEWEB-0303,2021-083B,2026-06-28T10:59:02.122080,13.18687634,.00018915,87.9176,333.2138,89.5472,270.5877,0,U,49187,999,23146,.9211938E-4,.49E-6,0
ONEWEB-0306,2021-083C,2026-06-28T10:44:27.437856,13.18687668,.00018805,87.9180,333.2041,101.7824,258.3520,0,U,49188,999,23150,.12342979E-3,.62E-6,0
ONEWEB-0307,2021-083D,2026-06-28T10:24:50.238720,13.13471977,.00019295,87.8963,317.9961,94.6277,265.5073,0,U,49189,999,23240,.2994503E-3,.122E-5,0
ONEWEB-0320,2021-083E,2026-06-28T11:13:36.216192,13.18686467,.00018399,87.9169,333.2172,96.4348,263.6993,0,U,49190,999,23146,.17208804E-3,.81E-6,0
ONEWEB-0321,2021-083F,2026-06-28T11:43:52.329504,13.20773192,.00020292,87.9193,272.1827,108.1663,251.9691,0,U,49191,999,23832,.37758224E-4,.28E-6,0
ONEWEB-0322,2021-083G,2026-06-28T15:47:50.284032,13.13471695,.00016207,87.8965,317.9517,110.8270,249.3033,0,U,49192,999,23242,.5028102E-5,.15E-6,0
ONEWEB-0324,2021-083H,2026-06-28T10:34:45.963264,13.18685913,.00020359,87.9181,333.2110,96.9366,263.1998,0,U,49193,999,23148,.66971843E-4,.39E-6,0
ONEWEB-0325,2021-083J,2026-06-28T10:39:37.228032,13.18686523,.00017721,87.9170,333.2174,94.1624,265.9711,0,U,49194,999,23149,-.23310856E-4,.4E-7,0
ONEWEB-0326,2021-083K,2026-06-28T11:01:40.974528,13.18685722,.0001848,87.9179,333.2133,86.3556,273.7788,0,U,49195,999,23148,.11471937E-3,.58E-6,0
ONEWEB-0327,2021-083L,2026-06-28T11:01:16.765248,13.18685496,.00016944,87.9171,333.2168,82.9134,277.2191,0,U,49196,999,23150,.11465799E-3,.58E-6,0
ONEWEB-0328,2021-083M,2026-06-28T15:33:11.963232,13.13470849,.00020284,87.8972,317.9276,98.8862,261.2497,0,U,49197,999,23240,-.71138992E-3,-.247E-5,0
ONEWEB-0331,2021-083N,2026-06-28T10:51:44.432640,13.18687510,.0001952,87.9180,333.2085,85.0655,275.0700,0,U,49198,999,23149,.12797029E-3,.63E-6,0
ONEWEB-0333,2021-083P,2026-06-28T15:25:53.007168,13.13471132,.00018073,87.8963,317.9539,97.5538,262.5797,0,U,49199,999,23241,-.7906933E-3,-.276E-5,0
ONEWEB-0334,2021-083Q,2026-06-28T12:04:28.138944,13.20774046,.00017933,87.9194,272.1900,124.0952,236.0351,0,U,49200,999,23828,-.29196636E-4,.1E-7,0
ONEWEB-0335,2021-083R,2026-06-28T09:49:28.602048,13.13471466,.00019219,87.8964,317.9975,93.0332,267.1017,0,U,49201,999,23239,-.72365886E-3,-.252E-5,0
